HUANJING 1A (HJ-1A)     
1 33320U 08041A   26203.96934819  .00000848  00000+0  10761-3 0  9993
2 33320  97.6710 188.4294 0019726  25.6561 334.5628 14.84060328963712
HUANJING 1B (HJ-1B)     
1 33321U 08041B   26203.95488183  .00000604  00000+0  79009-4 0  9992
2 33321  97.6547 191.4782 0037914  67.0159 293.5049 14.83375427963718
HODOYOSHI-4             
1 40011U 14033B   26203.93940343  .00001863  00000+0  20661-3 0  9990
2 40011  97.5470  27.0395 0023377 183.0523 177.0555 14.88204307654125
HODOYOSHI-3             
1 40015U 14033F   26203.88708641  .00001005  00000+0  12166-3 0  9990
2 40015  97.6454   5.4994 0031571 235.4440 124.3795 14.85449421652924
HIMAWARI-8              
1 40267U 14060A   26203.92727034 -.00000272  00000+0  00000+0 0  9997
2 40267   0.0396 267.9566 0001368 248.8349 258.3387  1.00270763 43117
HIMAWARI-9              
1 41836U 16064A   26203.92735700  .00000000  00000+0  00000+0 0  9993
2 41836   0.0142  49.8368 0002417 124.5286 240.9039  1.00271775 35567
ICESAT-2                
1 43613U 18070A   26203.84152407  .00009903  00000+0  35954-3 0  9996
2 43613  92.0084 300.6145 0004655  41.2443 318.9157 15.28272646437909
HYSIS                   
1 43719U 18096A   26203.94139799  .00000729  00000+0  10659-3 0  9993
2 43719  97.9821 270.4056 0001651  74.3423 285.7970 14.78620594412700
ICEYE-X2                
1 43800U 18099AU  26203.93691877  .00005707  00000+0  28274-3 0  9999
2 43800  97.4343 257.1523 0010713 167.8055 192.3441 15.18104754418245
ICEYE-X21               
1 55049U 23001AS  26175.21618542  .01585954  23968-5  60214-3 0  9995
2 55049  97.3001 262.6152 0012377 285.9702  74.0225 16.24069885194757
